# Information
- Date: 2021-05-25
- Time: 13:00
- Expense: .00
	- Ground Instruction: .00
		- Rate: .00
		- Time: 0.0
	- Flight Instruction: .00
		- Rate: .00
		- Time: 0.0
	- Plane Rental: .00
		- Rate: .00
		- Time: 0.0
- Aircraft:
	- Category: 
	- Classification: 
	- Make: 
	- Model: 
	- Serial: 
	- Identification: 
	- Hobbs: 
		- In: 
		- Out: 
	- Tach: 
		- In: 
		- Out: 
- Points of Departure and Arrival:
	- From: KJEF
	- To: KJEF
- Weather:
	- [Official](http://aviationwxchartsarchive.com/product/metar):
		- METAR: 
			```
			KJEF 251653Z 20009KT 1 3/4SM RA FEW043 BKN050 OVC070 22/18 A3009 RMK AO2 RAB1556 SLP174 P0009 T02170178
KJEF 251705Z 20008KT 2SM RA SCT049 BKN070 OVC085 22/18 A3008 RMK AO2 P0004 T02170183
			```
	- [Observed](https://www.wunderground.com/history/daily/us/mo/columbia/KJEF/):
		- Wind: 14
		- Clouds: Overcast at 8500
		- Precipitation: 0.1 / Rain
		- Temperature: 71
		- Humidity: 78
		- Dew Point: 64
		- Pressure: 29.49
		- Visibility: Clear
- Covered:
	- 
# Lesson Review
Once again, the weather has thwarted my plans to get airborne.<br />
This will be the 4th we've had to cancel Lesson 4 due to Missouri's weather.

# Last Thoughts
The weather is not your friend.