# Information
- Date: 2021-07-14
- Time: 15:30
- Expense: .00
	- Ground Instruction: .00
		- Rate: .00
		- Time: 0.0
	- Flight Instruction: .00
		- Rate: .00
		- Time: 0.0
	- Plane Rental: .00
		- Rate: .00
		- Time: 0.0
	- Tax: .00
- Aircraft:
	- Category: Airplane
	- Classification: Single Engine Land
	- Make: Piper
	- Model: Cherokee Warrior II
	- Serial: 
	- Identification:
	- Hobbs: 
		- Start: 
		- Stop: 
	- Tach: 
		- Start: 
		- Stop: 
- Points of Departure and Arrival:
	- From: KJEF
	- To: KJEF
- Weather:
	- [Official](http://aviationwxchartsarchive.com/product/metar):
		- METAR: 
			```
			KJEF 142253Z 20009KT 10SM SCT060 32/20 A3003 RMK AO2 SLP155 T03220200
			KJEF 142353Z 20008KT 10SM CLR 32/19 A3002 RMK AO2 SLP152 T03170189 10333 20311 56009
			```
- Covered:
	- N/A
# Lesson Review
Gusty conditions in the traffic pattern kept me out of the air today.
# Last Thoughts
Another lesson killed by the weather! I'm hoping that once I get to solo status, I'll be able to actually spend a little time dealing with weather conditions that aren't perfect - right now, I'm fighting the wind probably wouldn't be conducive to mastering a smooth landing.