# Information
- Date: 2021-05-28
- Time: 15:30
- Expense: .00
	- Ground Instruction: .00
		- Rate: .00
		- Time: 0.0
	- Flight Instruction: .00
		- Rate: .00
		- Time: 0.0
	- Plane Rental: .00
		- Rate: .00
		- Time: 0.0
- Aircraft:
	- Category: Airplane
	- Classification: Single Engine Land
	- Make: Piper
	- Model: Cherokee Warrior II
	- Serial: 
	- Identification: 
	- Hobbs: 
		- In: 
		- Out: 
	- Tach: 
		- In: 
		- Out: 
- Points of Departure and Arrival:
	- From: KJEF
	- To: KJEF
- Weather:
	- [Official](http://aviationwxchartsarchive.com/product/metar):
		- METAR: 
			```
			KJEF 281700Z 32012G20KT 10SM BKN016 OVC022 13/08 A3004 RMK AO2 T01330083
			KJEF 281753Z 31013G20KT 10SM OVC017 13/08 A3006 RMK AO2 SLP167 T01280078 10156 20128 53018
			```
	- [Observed](https://www.wunderground.com/history/daily/us/mo/columbia/KJEF/):
		- Wind: 12 from 320, gusting to 20
		- Clouds: Broken at 1600' 
		- Precipitation: 0
		- Temperature: 56
		- Humidity: 67
		- Dew Point: 45
		- Pressure: 30.06
		- Visibility: 10 miles
- Covered:
	- 
# Lesson Review
Missouri weather has, once again prevented me from flying.<br />
This time it was the cold, gusty winds from the north that ruined my fun.

# Last Thoughts
I hate the weather.  That is all.