# Information
- Date: 2021-06-25
- Time: 15:30
- Expense: $0.00
	- Ground Instruction: $0.00
		- Rate: $56.00
		- Time: 0.0
	- Flight Instruction: $0.00
		- Rate: $56.00
		- Time: 0.0
	- Plane Rental: $0.00
		- Rate: $138.00
		- Time: 0.0
- Aircraft:
	- Category: 
	- Classification: 
	- Make: 
	- Model: 
	- Serial: 
	- Identification: 
	- Hobbs: 
		- In: 
		- Out: 
	- Tach: 
		- In: 
		- Out: 
- Points of Departure and Arrival:
	- From: 
	- To: 
- Weather:
	- [Official](http://aviationwxchartsarchive.com/product/metar):
		- METAR: 
			```
			KJEF 251953Z 18008KT 10SM FEW040 31/23 A2984 RMK AO2 SLP089 T03110228
			KJEF 252053Z 15007KT 10SM BKN037 OVC050 32/24 A2980 RMK AO2 SLP076 T03220239 58029
			KJEF 252153Z 16008KT 10SM VCTS FEW036 FEW048 33/24 A2977 RMK AO2 LTG DSNT SE AND S AND NW SLP067 T03280239
			```
	- [Observed](https://www.wunderground.com/history/daily/us/mo/columbia/KJEF/):
		- Wind: 7kts from 210
		- Clouds: Overcast
		- Precipitation: 0.0
		- Temperature: 90
		- Humidity: 61
		- Dew Point: 75
		- Pressure: 29.80
		- Visibility: 10sm
- Covered:
	- N/A
# Lesson Review
The threat of thunderstorms beginning less than halfway through our alloted time slot prevented us from getting airborne today.
# Last Thoughts
Thwarted by Mother Nature - yet again. Unfortunately, it is looking like the next week or so might be about the same - hopefully the forecast is wrong!