# Information
- Date: 2021-07-17
- Time: 09:00
- Expense: $112.00
	- Ground Instruction: $112.00
		- Rate: $56.00
		- Time: 2.0
	- Flight Instruction: $0.00
		- Rate: $56.00
		- Time: 0.0
	- Plane Rental: $0.00
		- Rate: 138.00
		- Time: 0.0
	- Tax: $0.00
- Aircraft:
	- Category: 
	- Classification: 
	- Make: 
	- Model: 
	- Serial: 
	- Identification: 
	- Hobbs: 
		- Start: 
		- Stop: 
	- Tach: 
		- Start: 
		- Stop: 
- Points of Departure and Arrival:
	- From: KJEF
	- To: KJEF
- Weather:
	- [Official](http://aviationwxchartsarchive.com/product/metar):
		- METAR: 
			```
			KJEF 171353Z 07005KT 5SM HZ OVC004 23/21 A3009 RMK AO2 SLP175 T02330206
			KJEF 171408Z 09007KT 7SM OVC005 23/21 A3009 RMK AO2 T02330206
			```
- Covered:
	- N/A
# Lesson Review
Today's lesson was cancelled due to the low ceilings around the airport.  Instead, my CFI and I went over the answers for my Pre-solo Exam and chatted about aviation in general.
# Last Thoughts
If you're a pilot (or an aspiring pilot), the weather isn't your friend.  It's either out to ruin your fun or kill you.